OBJECT_NAME,OBJECT_ID,EPOCH,MEAN_MOTION,ECCENTRICITY,INCLINATION,RA_OF_ASC_NODE,ARG_OF_PERICENTER,MEAN_ANOMALY,EPHEMERIS_TYPE,CLASSIFICATION_TYPE,NORAD_CAT_ID,ELEMENT_SET_NO,REV_AT_EPOCH,BSTAR,MEAN_MOTION_DOT,MEAN_MOTION_DDOT
KAZEOSAT 2,2014-033A,2026-06-30T20:04:55.860960,14.85485008,.0007055,97.5395,20.7272,277.0693,82.9721,0,U,40010,999,65098,.93604E-4,.758E-5,0
HODOYOSHI-4,2014-033B,2026-06-30T19:38:09.290112,14.88160791,.0021921,97.5450,5.9831,260.3303,99.5438,0,U,40011,999,65083,.18125E-3,.1624E-4,0
DEIMOS-2,2014-033D,2026-06-30T20:22:00.283296,14.93758646,.0000812,97.5812,55.8571,59.9648,300.1652,0,U,40013,999,63976,.1107E-3,.1118E-4,0
HODOYOSHI-3,2014-033F,2026-06-30T10:56:00.356352,14.85414117,.00316739,97.6429,343.9629,312.6929,47.1619,0,U,40015,999,64959,.11806827E-3,.973E-5,0
SPOT 7,2014-034A,2026-06-30T19:27:37.013184,14.60969188,.0001416,98.0628,243.9511,95.8075,264.3288,0,U,40053,999,63912,.62052E-4,.259E-5,0
SKYSAT-B,2014-037D,2026-06-30T10:32:32.555616,14.88060267,.00044565,98.3844,141.1601,225.7255,134.3595,0,U,40072,999,64793,.15364039E-3,.1351E-4,0
WORLDVIEW-3 (WV-3),2014-048A,2026-06-30T18:40:27.790752,14.85043696,.0000137,97.8564,256.4233,163.6033,196.5186,0,U,40115,999,64392,.10916E-3,.879E-5,0
GAOFEN-2,2014-049A,2026-06-30T19:47:56.508576,14.80913627,.0007054,98.0110,246.0188,177.9828,182.1414,0,U,40118,999,64125,.92008E-4,.658E-5,0
YAOGAN-21,2014-053A,2026-06-30T20:43:00.988032,15.26568003,.0009315,97.1464,221.5124,53.7044,306.5054,0,U,40143,999,65704,.21872E-3,.5658E-4,0
YAOGAN-22,2014-063A,2026-06-30T10:02:44.539584,13.15531339,.00066245,100.7741,332.9124,156.3389,203.8028,0,U,40275,999,56155,-.4153934E-4,-.62E-6,0
ASNARO,2014-070A,2026-06-30T20:33:23.860224,15.19630418,.0006664,97.3457,257.6013,125.5185,234.6672,0,U,40298,999,64608,.29462E-3,.6215E-4,0
YAOGAN-24,2014-072A,2026-06-30T20:12:43.183872,14.76102180,.0013474,98.1505,319.2956,216.9804,143.0477,0,U,40310,999,62573,.10218E-3,.653E-5,0
CBERS 4,2014-079A,2026-06-30T20:06:58.833216,14.35512276,.0001402,98.3530,238.2410,52.7151,307.4162,0,U,40336,999,60591,.24447E-4,.28E-6,0
YAOGAN-26,2014-088A,2026-06-30T20:11:16.166976,15.47895211,.0004245,97.0639,181.7342,35.1142,325.0389,0,U,40362,999,63981,.45637E-3,.2372E-3,0
SMAP,2015-003A,2026-06-30T19:45:49.326912,14.63378535,.0001456,98.1277,188.7248,97.0680,263.0688,0,U,40376,999,60961,.1008E-3,.474E-5,0
KOMPSAT-3A,2015-014A,2026-06-30T19:49:26.195232,15.54667107,.005712,97.6884,174.1917,126.0030,234.6537,0,U,40536,999,62393,.44349E-3,.3154E-3,0
SENTINEL-2A,2015-028A,2026-06-30T20:25:31.558944,14.30817980,.00012,98.5689,256.5085,94.0601,266.0719,0,U,40697,999,57568,-.45562E-4,-.163E-5,0
GAOFEN-8,2015-030A,2026-06-30T20:56:30.374592,15.46448306,.0009629,97.6893,16.0684,139.6983,220.4981,0,U,40701,999,61356,.43808E-3,.21672E-3,0
CARBONITE 1 (CBNT-1),2015-032D,2026-06-30T19:21:09.701856,14.83629324,.001293,97.6506,359.3028,248.4128,111.5709,0,U,40718,999,59136,.22954E-3,.1845E-4,0
YAOGAN-27,2015-040A,2026-06-30T20:44:39.803712,13.16070949,.0008105,100.1151,167.6534,177.5764,182.5391,0,U,40878,999,51946,.58983E-3,.182E-5,0
GAOFEN-9 01,2015-047A,2026-06-30T21:29:23.219232,14.82910719,.0028883,97.6268,216.9670,95.0112,265.4401,0,U,40894,999,58222,.14316E-3,.1118E-4,0
YAOGAN-28,2015-064A,2026-06-30T21:11:35.991744,15.27594227,.0011717,97.3094,319.8673,137.5388,222.6760,0,U,41026,999,59277,.32273E-3,.8653E-4,0
YAOGAN-29,2015-069A,2026-06-30T20:58:15.043872,14.83093886,.0001871,98.0021,210.5275,32.7108,327.4221,0,U,41038,999,57265,-.37328E-4,-.358E-5,0
KENT RIDGE 1,2015-077B,2026-06-29T14:31:52.500864,15.23202634,.00081621,14.9780,173.6262,54.0639,306.0440,0,U,41167,999,58299,.12846013E-3,.3897E-4,0
GAOFEN-4,2015-083A,2026-06-30T19:42:44.162208,1.00269107,.0004226,0.3919,83.8517,111.7116,124.6883,0,U,41194,999,3866,0,-.324E-5,0
JASON-3,2016-002A,2026-06-30T19:52:18.920928,12.87623193,.0008344,66.0416,97.1581,272.0255,87.9808,0,U,41240,999,48900,.82684E-4,-.41E-6,0
SENTINEL-3A,2016-011A,2026-06-30T19:43:20.684352,14.26736354,.0001429,98.6245,249.0093,95.2641,264.8703,0,U,41335,999,54000,.68296E-4,.122E-5,0
ZIYUAN 3-02 (ZY 3-02),2016-033A,2026-06-30T20:54:43.288704,15.21307518,.0012739,97.3836,257.3823,237.6582,122.3421,0,U,41556,999,56006,.24316E-3,.5383E-4,0
CARTOSAT-2C,2016-040A,2026-06-30T21:24:32.732064,15.19294903,.0010469,97.4481,241.6812,90.0530,270.1904,0,U,41599,999,55579,.1491E-3,.3082E-4,0
SKYSAT-C1,2016-040C,2026-06-29T23:33:46.919520,15.36513930,.000214,96.9554,212.0090,31.0993,329.0379,0,U,41601,999,55983,.27073127E-3,.9575E-4,0
LAPAN-A3,2016-040E,2026-06-30T19:58:14.782656,15.33191552,.0009181,97.1489,177.5301,336.8781,23.2048,0,U,41603,999,55690,.10536E-3,.3307E-4,0
