KAZEOSAT 2              
1 40010U 14033A   26181.83675765  .00000758  00000+0  93604-4 0  9996
2 40010  97.5395  20.7272 0007055 277.0693  82.9721 14.85485008650986
HODOYOSHI-4             
1 40011U 14033B   26181.81816308  .00001624  00000+0  18125-3 0  9992
2 40011  97.5450   5.9831 0021921 260.3303  99.5438 14.88160791650831
DEIMOS-2                
1 40013U 14033D   26181.84861439  .00001118  00000+0  11070-3 0  9992
2 40013  97.5812  55.8571 0000812  59.9648 300.1652 14.93758646639766
HODOYOSHI-3             
1 40015U 14033F   26181.45555968  .00000973  00000+0  11807-3 0  9994
2 40015  97.6429 343.9629 0031673 312.6929  47.1619 14.85414117649594
SPOT 7                  
1 40053U 14034A   26181.81084506  .00000259  00000+0  62052-4 0  9998
2 40053  98.0628 243.9511 0001416  95.8075 264.3288 14.60969188639124
SKYSAT-B                
1 40072U 14037D   26181.43926569  .00001351  00000+0  15364-3 0  9991
2 40072  98.3844 141.1601 0004456 225.7255 134.3595 14.88060267647933
WORLDVIEW-3 (WV-3)      
1 40115U 14048A   26181.77809943  .00000879  00000+0  10916-3 0  9996
2 40115  97.8564 256.4233 0000137 163.6033 196.5186 14.85043696643926
GAOFEN-2                
1 40118U 14049A   26181.82495959  .00000658  00000+0  92008-4 0  9992
2 40118  98.0110 246.0188 0007054 177.9828 182.1414 14.80913627641252
YAOGAN-21               
1 40143U 14053A   26181.86320588  .00005658  00000+0  21872-3 0  9999
2 40143  97.1464 221.5124 0009315  53.7044 306.5054 15.26568003657044
YAOGAN-22               
1 40275U 14063A   26181.41857106 -.00000062  00000+0 -41539-4 0  9997
2 40275 100.7741 332.9124 0006624 156.3389 203.8028 13.15531339561556
ASNARO                  
1 40298U 14070A   26181.85652616  .00006215  00000+0  29462-3 0  9991
2 40298  97.3457 257.6013 0006664 125.5185 234.6672 15.19630418646085
YAOGAN-24               
1 40310U 14072A   26181.84216648  .00000653  00000+0  10218-3 0  9997
2 40310  98.1505 319.2956 0013474 216.9804 143.0477 14.76102180625731
CBERS 4                 
1 40336U 14079A   26181.83818094  .00000028  00000+0  24447-4 0  9990
2 40336  98.3530 238.2410 0001402  52.7151 307.4162 14.35512276605914
YAOGAN-26               
1 40362U 14088A   26181.84115934  .00023720  00000+0  45637-3 0  9990
2 40362  97.0639 181.7342 0004245  35.1142 325.0389 15.47895211639818
SMAP                    
1 40376U 15003A   26181.82348758  .00000474  00000+0  10080-3 0  9998
2 40376  98.1277 188.7248 0001456  97.0680 263.0688 14.63378535609610
KOMPSAT-3A              
1 40536U 15014A   26181.82599763  .00031540  00000+0  44349-3 0  9995
2 40536  97.6884 174.1917 0057120 126.0030 234.6537 15.54667107623934
SENTINEL-2A             
1 40697U 15028A   26181.85105971 -.00000163  00000+0 -45562-4 0  9993
2 40697  98.5689 256.5085 0001200  94.0601 266.0719 14.30817980575680
GAOFEN-8                
1 40701U 15030A   26181.87257378  .00021672  00000+0  43808-3 0  9999
2 40701  97.6893  16.0684 0009629 139.6983 220.4981 15.46448306613564
CARBONITE 1 (CBNT-1)    
1 40718U 15032D   26181.80636229  .00001845  00000+0  22954-3 0  9997
2 40718  97.6506 359.3028 0012930 248.4128 111.5709 14.83629324591369
YAOGAN-27               
1 40878U 15040A   26181.86434958  .00000182  00000+0  58983-3 0  9998
2 40878 100.1151 167.6534 0008105 177.5764 182.5391 13.16070949519465
GAOFEN-9 01             
1 40894U 15047A   26181.89540763  .00001118  00000+0  14316-3 0  9990
2 40894  97.6268 216.9670 0028883  95.0112 265.4401 14.82910719582226
YAOGAN-28               
1 41026U 15064A   26181.88305546  .00008653  00000+0  32273-3 0  9997
2 41026  97.3094 319.8673 0011717 137.5388 222.6760 15.27594227592775
YAOGAN-29               
1 41038U 15069A   26181.87378523 -.00000358  00000+0 -37328-4 0  9992
2 41038  98.0021 210.5275 0001871  32.7108 327.4221 14.83093886572654
KENT RIDGE 1            
1 41167U 15077B   26180.60546876  .00003897  00000+0  12846-3 0  9998
2 41167  14.9780 173.6262 0008162  54.0639 306.0440 15.23202634582999
GAOFEN-4                
1 41194U 15083A   26181.82134447 -.00000324  00000+0  00000+0 0  9995
2 41194   0.3919  83.8517 0004226 111.7116 124.6883  1.00269107 38668
JASON-3                 
1 41240U 16002A   26181.82799677 -.00000041  00000+0  82684-4 0  9990
2 41240  66.0416  97.1581 0008344 272.0255  87.9808 12.87623193489002
SENTINEL-3A             
1 41335U 16011A   26181.82176718  .00000122  00000+0  68296-4 0  9992
2 41335  98.6245 249.0093 0001429  95.2641 264.8703 14.26736354540002
ZIYUAN 3-02 (ZY 3-02)   
1 41556U 16033A   26181.87133436  .00005383  00000+0  24316-3 0  9994
2 41556  97.3836 257.3823 0012739 237.6582 122.3421 15.21307518560069
CARTOSAT-2C             
1 41599U 16040A   26181.89204551  .00003082  00000+0  14910-3 0  9991
2 41599  97.4481 241.6812 0010469  90.0530 270.1904 15.19294903555791
SKYSAT-C1               
1 41601U 16040C   26180.98179305  .00009575  00000+0  27073-3 0  9999
2 41601  96.9554 212.0090 0002140  31.0993 329.0379 15.36513930559837
LAPAN-A3                
1 41603U 16040E   26181.83211554  .00003307  00000+0  10536-3 0  9992
2 41603  97.1489 177.5301 0009181 336.8781  23.2048 15.33191552556902
